[{"OBJECT_NAME":"OTP-2","OBJECT_ID":"2025-052AB","EPOCH":"2026-03-09T15:22:45.676416","MEAN_MOTION":15.22471318,"ECCENTRICITY":0.0007494,"INCLINATION":97.3983,"RA_OF_ASC_NODE":322.5927,"ARG_OF_PERICENTER":139.5012,"MEAN_ANOMALY":220.6784,"EPHEMERIS_TYPE":0,"CLASSIFICATION_TYPE":"U","NORAD_CAT_ID":63235,"ELEMENT_SET_NO":999,"REV_AT_EPOCH":5471,"BSTAR":0.00047808,"MEAN_MOTION_DOT":0.00011014,"MEAN_MOTION_DDOT":0},{"OBJECT_NAME":"SITRO-AIS-62","OBJECT_ID":"2025-313BA","EPOCH":"2026-03-09T22:28:04.503072","MEAN_MOTION":15.2313984,"ECCENTRICITY":0.00083903,"INCLINATION":97.4013,"RA_OF_ASC_NODE":145.3565,"ARG_OF_PERICENTER":355.0929,"MEAN_ANOMALY":5.0224,"EPHEMERIS_TYPE":0,"CLASSIFICATION_TYPE":"U","NORAD_CAT_ID":67296,"ELEMENT_SET_NO":999,"REV_AT_EPOCH":1086,"BSTAR":0.00055522855,"MEAN_MOTION_DOT":0.00013063,"MEAN_MOTION_DDOT":0}]
